{"type": "FeatureCollection", "features": [ {"type": "Feature", "properties": {"norad_id": 65304, "name": "DRAGON CRS-33", "group": "stations", "lat": 37.5337173781978, "lon": 131.72522487134054, "alt_km": 413.7929336272964, "timestamp": "2025-12-22T11:33:19.188453+00:00", "meta": {"OBJECT_NAME": "DRAGON CRS-33", "OBJECT_ID": "2025-186A", "EPOCH": "2025-12-21T13:40:08.668128", "MEAN_MOTION": 15.49703708, "ECCENTRICITY": 0.00031656, "INCLINATION": 51.6324, "RA_OF_ASC_NODE": 98.7522, "ARG_OF_PERICENTER": 281.5679, "MEAN_ANOMALY": 78.4955, "EPHEMERIS_TYPE": 0, "CLASSIFICATION_TYPE": "U", "NORAD_CAT_ID": 65304, "ELEMENT_SET_NO": 999, "REV_AT_EPOCH": 11, "BSTAR": 0.0001683656, "MEAN_MOTION_DOT": 9.066e-05, "MEAN_MOTION_DDOT": 0}, "tle": {"line1": "1 65304U 25186A   25355.56954477  .00009066  00000+0  16837-3 0  9995", "line2": "2 65304  51.6324  98.7522 0003165 281.5679  78.4955 15.49703708   111"}}, "geometry": {"type": "Point", "coordinates": [131.72522487134054, 37.5337173781978]}}, {"type": "Feature", "properties": {"norad_id": 65586, "name": "PROGRESS-MS 32", "group": "stations", "lat": 37.53371786087287, "lon": 131.72522563704837, "alt_km": 413.79293357447204, "timestamp": "2025-12-22T11:33:19.188465+00:00", "meta": {"OBJECT_NAME": "PROGRESS-MS 32", "OBJECT_ID": "2025-204A", "EPOCH": "2025-12-21T13:40:08.668128", "MEAN_MOTION": 15.49703708, "ECCENTRICITY": 0.00031656, "INCLINATION": 51.6324, "RA_OF_ASC_NODE": 98.7522, "ARG_OF_PERICENTER": 281.5679, "MEAN_ANOMALY": 78.4955, "EPHEMERIS_TYPE": 0, "CLASSIFICATION_TYPE": "U", "NORAD_CAT_ID": 65586, "ELEMENT_SET_NO": 999, "REV_AT_EPOCH": 27, "BSTAR": 0.0001683656, "MEAN_MOTION_DOT": 9.066e-05, "MEAN_MOTION_DDOT": 0}, "tle": {"line1": "1 65586U 25204A   25355.56954477  .00009066  00000+0  16837-3 0  9998", "line2": "2 65586  51.6324  98.7522 0003165 281.5679  78.4955 15.49703708   270"}}, "geometry": {"type": "Point", "coordinates": [131.72522563704837, 37.53371786087287]}}, {"type": "Feature", "properties": {"norad_id": 65616, "name": "CYGNUS NG-23", "group": "stations", "lat": 37.53371826310192, "lon": 131.72522627513794, "alt_km": 413.7929335304516, "timestamp": "2025-12-22T11:33:19.188475+00:00", "meta": {"OBJECT_NAME": "CYGNUS NG-23", "OBJECT_ID": "2025-208A", "EPOCH": "2025-12-21T13:40:08.668128", "MEAN_MOTION": 15.49703708, "ECCENTRICITY": 0.00031656, "INCLINATION": 51.6324, "RA_OF_ASC_NODE": 98.7522, "ARG_OF_PERICENTER": 281.5679, "MEAN_ANOMALY": 78.4955, "EPHEMERIS_TYPE": 0, "CLASSIFICATION_TYPE": "U", "NORAD_CAT_ID": 65616, "ELEMENT_SET_NO": 999, "REV_AT_EPOCH": 22, "BSTAR": 0.0001683656, "MEAN_MOTION_DOT": 9.066e-05, "MEAN_MOTION_DDOT": 0}, "tle": {"line1": "1 65616U 25208A   25355.56954477  .00009066  00000+0  16837-3 0  9996", "line2": "2 65616  51.6324  98.7522 0003165 281.5679  78.4955 15.49703708   229"}}, "geometry": {"type": "Point", "coordinates": [131.72522627513794, 37.53371826310192]}}, {"type": "Feature", "properties": {"norad_id": 65729, "name": "DRAGONFLY", "group": "stations", "lat": 23.901129094503307, "lon": -114.80234217822593, "alt_km": 346.6273877776939, "timestamp": "2025-12-22T11:33:19.188485+00:00", "meta": {"OBJECT_NAME": "DRAGONFLY", "OBJECT_ID": "1998-067XH", "EPOCH": "2025-12-21T12:05:00.182112", "MEAN_MOTION": 15.74757439, "ECCENTRICITY": 0.00076429, "INCLINATION": 51.6248, "RA_OF_ASC_NODE": 90.7906, "ARG_OF_PERICENTER": 331.3887, "MEAN_ANOMALY": 28.6692, "EPHEMERIS_TYPE": 0, "CLASSIFICATION_TYPE": "U", "NORAD_CAT_ID": 65729, "ELEMENT_SET_NO": 999, "REV_AT_EPOCH": 1454, "BSTAR": 0.0011143693, "MEAN_MOTION_DOT": 0.00170588, "MEAN_MOTION_DDOT": 0}, "tle": {"line1": "1 65729U 98067XH  25355.50347433  .00170588  00000+0  11144-2 0  9999", "line2": "2 65729  51.6248  90.7906 0007642 331.3887  28.6692 15.74757439 14549"}}, "geometry": {"type": "Point", "coordinates": [-114.80234217822593, 23.901129094503307]}}, {"type": "Feature", "properties": {"norad_id": 65731, "name": "1998-067XK", "group": "stations", "lat": -46.96991084597797, "lon": 29.660815952213778, "alt_km": 367.28820217622615, "timestamp": "2025-12-22T11:33:19.188496+00:00", "meta": {"OBJECT_NAME": "1998-067XK", "OBJECT_ID": "1998-067XK", "EPOCH": "2025-12-21T23:36:26.095968", "MEAN_MOTION": 15.67429513, "ECCENTRICITY": 0.0004835, "INCLINATION": 51.6293, "RA_OF_ASC_NODE": 90.2734, "ARG_OF_PERICENTER": 305.1289, "MEAN_ANOMALY": 54.9254, "EPHEMERIS_TYPE": 0, "CLASSIFICATION_TYPE": "U", "NORAD_CAT_ID": 65731, "ELEMENT_SET_NO": 999, "REV_AT_EPOCH": 1459, "BSTAR": 0.00097602, "MEAN_MOTION_DOT": 0.00108748, "MEAN_MOTION_DDOT": 0}, "tle": {"line1": "1 65731U 98067XK  25355.98363537  .00108748  00000+0  97602-3 0  9990", "line2": "2 65731  51.6293  90.2734 0004835 305.1289  54.9254 15.67429513 14594"}}, "geometry": {"type": "Point", "coordinates": [29.660815952213778, -46.96991084597797]}}, {"type": "Feature", "properties": {"norad_id": 65732, "name": "RSP-03", "group": "stations", "lat": 11.982835686234882, "lon": 96.48021343690529, "alt_km": 353.5406879086895, "timestamp": "2025-12-22T11:33:19.188507+00:00", "meta": {"OBJECT_NAME": "RSP-03", "OBJECT_ID": "1998-067XL", "EPOCH": "2025-12-21T12:35:17.944800", "MEAN_MOTION": 15.70746693, "ECCENTRICITY": 0.00057254, "INCLINATION": 51.6266, "RA_OF_ASC_NODE": 91.6927, "ARG_OF_PERICENTER": 306.8902, "MEAN_ANOMALY": 53.1571, "EPHEMERIS_TYPE": 0, "CLASSIFICATION_TYPE": "U", "NORAD_CAT_ID": 65732, "ELEMENT_SET_NO": 999, "REV_AT_EPOCH": 1454, "BSTAR": 0.00095100217, "MEAN_MOTION_DOT": 0.00121759, "MEAN_MOTION_DDOT": 0}, "tle": {"line1": "1 65732U 98067XL  25355.52451325  .00121759  00000+0  95100-3 0  9992", "line2": "2 65732  51.6266  91.6927 0005725 306.8902  53.1571 15.70746693 14546"}}, "geometry": {"type": "Point", "coordinates": [96.48021343690529, 11.982835686234882]}}, {"type": "Feature", "properties": {"norad_id": 65733, "name": "GHS-01", "group": "stations", "lat": -1.7177402257008432, "lon": -93.69377201139899, "alt_km": 339.61924046445984, "timestamp": "2025-12-22T11:33:19.188520+00:00", "meta": {"OBJECT_NAME": "GHS-01", "OBJECT_ID": "1998-067XM", "EPOCH": "2025-12-21T11:59:59.059104", "MEAN_MOTION": 15.78528465, "ECCENTRICITY": 0.0008816, "INCLINATION": 51.6282, "RA_OF_ASC_NODE": 90.0237, "ARG_OF_PERICENTER": 335.2591, "MEAN_ANOMALY": 24.7986, "EPHEMERIS_TYPE": 0, "CLASSIFICATION_TYPE": "U", "NORAD_CAT_ID": 65733, "ELEMENT_SET_NO": 999, "REV_AT_EPOCH": 1456, "BSTAR": 0.0013106, "MEAN_MOTION_DOT": 0.00239293, "MEAN_MOTION_DDOT": 0}, "tle": {"line1": "1 65733U 98067XM  25355.49998911  .00239293  00000+0  13106-2 0  9994", "line2": "2 65733  51.6282  90.0237 0008816 335.2591  24.7986 15.78528465 14565"}}, "geometry": {"type": "Point", "coordinates": [-93.69377201139899, -1.7177402257008432]}}, {"type": "Feature", "properties": {"norad_id": 65941, "name": "YOTSUBA-KULOVER", "group": "stations", "lat": -1.4727727872763203, "lon": -87.86660015224054, "alt_km": 387.843787054705, "timestamp": "2025-12-22T11:33:19.188530+00:00", "meta": {"OBJECT_NAME": "YOTSUBA-KULOVER", "OBJECT_ID": "1998-067XN", "EPOCH": "2025-12-21T13:15:51.125184", "MEAN_MOTION": 15.60566136, "ECCENTRICITY": 0.0002004, "INCLINATION": 51.6297, "RA_OF_ASC_NODE": 95.6446, "ARG_OF_PERICENTER": 334.8286, "MEAN_ANOMALY": 25.2609, "EPHEMERIS_TYPE": 0, "CLASSIFICATION_TYPE": "U", "NORAD_CAT_ID": 65941, "ELEMENT_SET_NO": 999, "REV_AT_EPOCH": 1123, "BSTAR": 0.00075706467, "MEAN_MOTION_DOT": 0.00063759, "MEAN_MOTION_DDOT": 0}, "tle": {"line1": "1 65941U 98067XN  25355.55267506  .00063759  00000+0  75706-3 0  9998", "line2": "2 65941  51.6297  95.6446 0002004 334.8286  25.2609 15.60566136 11231"}}, "geometry": {"type": "Point", "coordinates": [-87.86660015224054, -1.4727727872763203]}}, {"type": "Feature", "properties": {"norad_id": 65942, "name": "BOTAN", "group": "stations", "lat": -49.729307356064254, "lon": 20.730836313583218, "alt_km": 376.60637541653614, "timestamp": "2025-12-22T11:33:19.188540+00:00", "meta": {"OBJECT_NAME": "BOTAN", "OBJECT_ID": "1998-067XP", "EPOCH": "2025-12-21T12:53:25.393344", "MEAN_MOTION": 15.64619472, "ECCENTRICITY": 0.00030368, "INCLINATION": 51.6287, "RA_OF_ASC_NODE": 94.7896, "ARG_OF_PERICENTER": 312.4061, "MEAN_ANOMALY": 47.6677, "EPHEMERIS_TYPE": 0, "CLASSIFICATION_TYPE": "U", "NORAD_CAT_ID": 65942, "ELEMENT_SET_NO": 999, "REV_AT_EPOCH": 1124, "BSTAR": 0.0010329354, "MEAN_MOTION_DOT": 0.00102689, "MEAN_MOTION_DDOT": 0}, "tle": {"line1": "1 65942U 98067XP  25355.53709946  .00102689  00000+0  10329-2 0  9991", "line2": "2 65942  51.6287  94.7896 0003036 312.4061  47.6677 15.64619472 11249"}}, "geometry": {"type": "Point", "coordinates": [20.730836313583218, -49.729307356064254]}}, {"type": "Feature", "properties": {"norad_id": 65943, "name": "E-KAGAKU-1", "group": "stations", "lat": -0.985730628326584, "lon": -88.24574632904013, "alt_km": 386.74238883273756, "timestamp": "2025-12-22T11:33:19.188551+00:00", "meta": {"OBJECT_NAME": "E-KAGAKU-1", "OBJECT_ID": "1998-067XQ", "EPOCH": "2025-12-21T11:43:47.711424", "MEAN_MOTION": 15.60558335, "ECCENTRICITY": 0.00011984, "INCLINATION": 51.6316, "RA_OF_ASC_NODE": 95.9734, "ARG_OF_PERICENTER": 280.9822, "MEAN_ANOMALY": 79.1036, "EPHEMERIS_TYPE": 0, "CLASSIFICATION_TYPE": "U", "NORAD_CAT_ID": 65943, "ELEMENT_SET_NO": 999, "REV_AT_EPOCH": 1122, "BSTAR": 0.00073910068, "MEAN_MOTION_DOT": 0.00062201, "MEAN_MOTION_DDOT": 0}, "tle": {"line1": "1 65943U 98067XQ  25355.48874666  .00062201  00000+0  73910-3 0  9999", "line2": "2 65943  51.6316  95.9734 0001198 280.9822  79.1036 15.60558335 11221"}}, "geometry": {"type": "Point", "coordinates": [-88.24574632904013, -0.985730628326584]}}]}